*******************************************************************************
 Revised: April 12, 2021                Venus                           299 / 2
 
 PHYSICAL DATA (updated 2020-Oct-19):
  Vol. Mean Radius (km) =  6051.84+-0.01 Density (g/cm^3)      =  5.204
  Mass x10^23 (kg)      =    48.685      Volume (x10^10 km^3)  = 92.843
  Sidereal rot. period  =   243.018484 d Sid. Rot. Rate (rad/s)= -0.00000029924
  Mean solar day        =   116.7490 d   Equ. gravity  m/s^2   =  8.870
  Mom. of Inertia       =     0.33       Core radius (km)      = ~3200
  Geometric Albedo      =     0.65       Potential Love # k2   = ~0.25
  GM (km^3/s^2)         = 324858.592     Equatorial Radius, Re = 6051.893 km
  GM 1-sigma (km^3/s^2) =    +-0.006     Mass ratio (Sun/Venus)= 408523.72
  Atmos. pressure (bar) =  90            Max. angular diam.    =   60.2"
  Mean Temperature (K)  = 735            Visual mag. V(1,0)    =   -4.40
  Obliquity to orbit    = 177.3 deg      Hill's sphere rad.,Rp =  167.1
  Sidereal orb. per., y =   0.61519726   Orbit speed, km/s     =   35.021
  Sidereal orb. per., d = 224.70079922   Escape speed, km/s    =   10.361
                                 Perihelion  Aphelion    Mean
  Solar Constant (W/m^2)         2759         2614       2650
  Maximum Planetary IR (W/m^2)    153         153         153
  Minimum Planetary IR (W/m^2)    153         153         153
*******************************************************************************


*******************************************************************************
Ephemeris / WWW_USER Wed Nov 20 14:08:44 2024 Pasadena, USA      / Horizons
*******************************************************************************
Target body name: Venus (299)                     {source: DE441}
Center body name: Sun (10)                        {source: DE441}
Center-site name: (user defined site below)
*******************************************************************************
Start time      : A.D. 2022-Sep-30 00:00:00.0000 TDB
Stop  time      : A.D. 2023-Sep-30 00:00:00.0000 TDB
Step-size       : 1440 minutes
*******************************************************************************
Center geodetic : 0.0, 0.0, 0.0                   {E-lon(deg),Lat(deg),Alt(km)}
Center cylindric: 0.0, 695700.0, 0.0              {E-lon(deg),Dxy(km),Dz(km)}
Center pole/equ : IAU_SUN                         {East-longitude positive}
Center radii    : 695700.0, 695700.0, 695700.0 km {Equator_a, b, pole_c}
Output units    : KM-S
Calendar mode   : Mixed Julian/Gregorian
Output type     : GEOMETRIC cartesian states
Output format   : 3 (position, velocity, LT, range, range-rate)
Reference frame : Ecliptic of J2000.0
*******************************************************************************
JDTDB
   X     Y     Z
   VX    VY    VZ
   LT    RG    RR
*******************************************************************************
$$SOE
2460212.500000000 = A.D. 2023-Sep-25 00:00:00.0000 TDB 
 X = 9.568363585713960E+07 Y = 5.108003309226111E+07 Z =-4.798130366328117E+06
 VX=-1.834738572012061E+01 VY= 3.042101871096377E+01 VZ= 1.596029438971113E+00
 LT= 3.621521527691686E+02 RG= 1.085704840486606E+08 RR=-1.927742064234105E+00
2460213.500000000 = A.D. 2023-Sep-26 00:00:00.0000 TDB 
 X = 9.406740223943073E+07 Y = 5.366810395278052E+07 Z =-4.659753727171149E+06
 VX=-1.904425703877071E+01 VY= 2.949074116825626E+01 VZ= 1.604815672458207E+00
 LT= 3.615849385464492E+02 RG= 1.084004375026190E+08 RR=-1.994546104673879E+00
2460214.500000000 = A.D. 2023-Sep-27 00:00:00.0000 TDB 
 X = 9.239628563101161E+07 Y = 5.617690455898295E+07 Z =-4.521185702585539E+06
 VX=-1.961991309415757E+01 VY= 2.859061027532143E+01 VZ= 1.600865924568319E+00
 LT= 3.610106634001684E+02 RG= 1.082282741449471E+08 RR=-1.976497577952926E+00
2460215.500000000 = A.D. 2023-Sep-28 00:00:00.0000 TDB 
 X = 9.068012600648873E+07 Y = 5.861016482955512E+07 Z =-4.383411760687731E+06
 VX=-2.009003710596685E+01 VY= 2.774599246573792E+01 VZ= 1.586945963627370E+00
 LT= 3.604537966116537E+02 RG= 1.080613296816397E+08 RR=-1.874177771685931E+00
2460216.500000000 = A.D. 2023-Sep-29 00:00:00.0000 TDB 
 X = 8.892715737421064E+07 Y = 6.097360890782728E+07 Z =-4.247153673941493E+06
 VX=-2.047592423122139E+01 VY= 2.697745158646534E+01 VZ= 1.566362543422979E+00
 LT= 3.599380494200545E+02 RG= 1.079067125633636E+08 RR=-1.692255580977428E+00
2460217.500000000 = A.D. 2023-Sep-30 00:00:00.0000 TDB 
 X = 8.714357852495666E+07 Y = 6.327448460926824E+07 Z =-4.112831379505839E+06
 VX=-2.080314335710198E+01 VY= 2.629951753062799E+01 VZ= 1.542759788996097E+00
 LT= 3.594852159005693E+02 RG= 1.077709564894924E+08 RR=-1.439321459200303E+00
